[{"OBJECT_NAME":"YUNHAI-2 01A","OBJECT_ID":"2018-112A","EPOCH":"2026-03-09T22:34:33.618432","MEAN_MOTION":14.28975171,"ECCENTRICITY":4.652e-5,"INCLINATION":50.0087,"RA_OF_ASC_NODE":105.4873,"ARG_OF_PERICENTER":228.8508,"MEAN_ANOMALY":131.2367,"EPHEMERIS_TYPE":0,"CLASSIFICATION_TYPE":"U","NORAD_CAT_ID":43909,"ELEMENT_SET_NO":999,"REV_AT_EPOCH":37689,"BSTAR":7.7064636e-5,"MEAN_MOTION_DOT":3.5e-7,"MEAN_MOTION_DDOT":0},{"OBJECT_NAME":"CZ-12 R\/B","OBJECT_ID":"2026-013K","EPOCH":"2026-03-09T02:50:22.290720","MEAN_MOTION":14.14459608,"ECCENTRICITY":0.00687097,"INCLINATION":49.9947,"RA_OF_ASC_NODE":342.8791,"ARG_OF_PERICENTER":295.8158,"MEAN_ANOMALY":63.5674,"EPHEMERIS_TYPE":0,"CLASSIFICATION_TYPE":"U","NORAD_CAT_ID":67531,"ELEMENT_SET_NO":999,"REV_AT_EPOCH":690,"BSTAR":-2.6787304e-5,"MEAN_MOTION_DOT":-2.08e-6,"MEAN_MOTION_DDOT":0}]
